ONEWEB-0120             
1 47266U 20100J   25068.94466595  .00000362  00000+0  97029-3 0  9997
2 47266  87.8804  83.0799 0001813  83.4762 276.6573 13.12440737203835
ONEWEB-0121             
1 47267U 20100K   25069.46683506  .00000212  00000+0  55511-3 0  9993
2 47267  87.8797  82.9528 0002056  90.3028 269.8336 13.12444399203814
ONEWEB-0122             
1 47268U 20100L   25069.53804330 -.00000380  00000+0 -10904-2 0  9996
2 47268  87.8798  82.9437 0001999  86.2561 273.8796 13.12443413203738
ONEWEB-0123             
1 47269U 20100M   25069.53333664 -.00000204  00000+0 -60377-3 0  9999
2 47269  87.8803  82.9679 0001824  90.8956 269.2381 13.12444033203873
ONEWEB-0124             
1 47270U 20100N   25068.53090342 -.00000322  00000+0 -93101-3 0  9995
2 47270  87.8802  83.1658 0002063  96.2779 263.8585 13.12443742203628
ONEWEB-0125             
1 47271U 20100P   25069.49926806  .00000230  00000+0  60378-3 0  9991
2 47271  87.8803  82.9343 0001807 100.2387 259.8945 13.12443109203817
ONEWEB-0126             
1 47272U 20100Q   25069.52441220 -.00000351  00000+0 -10102-2 0  9993
2 47272  87.8799  82.9249 0001812  86.9291 273.2045 13.12444084203888
ONEWEB-0127             
1 47273U 20100R   25069.48631256  .00000531  00000+0  14415-2 0  9998
2 47273  87.8803  82.9702 0001899  86.4238 273.7108 13.12442012203907
